{"type": "FeatureCollection", "features": [ {"type": "Feature", "properties": {"norad_id": 31169, "name": "FENGYUN 1C DEB", "group": "fengyun-1c-debris", "lat": 79.70447529992775, "lon": -99.95535399639192, "alt_km": 795.0799313084972, "timestamp": "2025-12-16T19:34:24.548453+00:00", "meta": {"OBJECT_NAME": "FENGYUN 1C DEB", "OBJECT_ID": "1999-025BHX", "EPOCH": "2025-12-14T13:15:57.703680", "MEAN_MOTION": 14.2647232, "ECCENTRICITY": 0.0057287, "INCLINATION": 99.1566, "RA_OF_ASC_NODE": 15.0665, "ARG_OF_PERICENTER": 12.2461, "MEAN_ANOMALY": 348.0095, "EPHEMERIS_TYPE": 0, "CLASSIFICATION_TYPE": "U", "NORAD_CAT_ID": 31169, "ELEMENT_SET_NO": 999, "REV_AT_EPOCH": 57130, "BSTAR": 0.001813292, "MEAN_MOTION_DOT": 4.397e-05, "MEAN_MOTION_DDOT": 0}, "tle": {"line1": "1 31169U 99025BHX 25348.55275120  .00004397  00000+0  18133-2 0  9994", "line2": "2 31169  99.1566  15.0665 0057287  12.2461 348.0095 14.26472320571302"}}, "geometry": {"type": "Point", "coordinates": [-99.95535399639192, 79.70447529992775]}}, {"type": "Feature", "properties": {"norad_id": 31171, "name": "FENGYUN 1C DEB", "group": "fengyun-1c-debris", "lat": -48.47787324215968, "lon": -10.64565193727264, "alt_km": 672.7515003674425, "timestamp": "2025-12-16T19:34:24.548463+00:00", "meta": {"OBJECT_NAME": "FENGYUN 1C DEB", "OBJECT_ID": "1999-025BHZ", "EPOCH": "2025-12-15T05:22:36.058944", "MEAN_MOTION": 14.34900078, "ECCENTRICITY": 0.01539172, "INCLINATION": 98.0152, "RA_OF_ASC_NODE": 338.7192, "ARG_OF_PERICENTER": 309.1501, "MEAN_ANOMALY": 65.033, "EPHEMERIS_TYPE": 0, "CLASSIFICATION_TYPE": "U", "NORAD_CAT_ID": 31171, "ELEMENT_SET_NO": 999, "REV_AT_EPOCH": 95866, "BSTAR": 0.00277766, "MEAN_MOTION_DOT": 8.991e-05, "MEAN_MOTION_DDOT": 0}, "tle": {"line1": "1 31171U 99025BHZ 25349.22402846  .00008991  00000+0  27777-2 0  9997", "line2": "2 31171  98.0152 338.7192 0153917 309.1501  65.0330 14.34900078958665"}}, "geometry": {"type": "Point", "coordinates": [-10.64565193727264, -48.47787324215968]}}, {"type": "Feature", "properties": {"norad_id": 31172, "name": "FENGYUN 1C DEB", "group": "fengyun-1c-debris", "lat": 21.84451247236031, "lon": 178.5765378592266, "alt_km": 800.6985532440249, "timestamp": "2025-12-16T19:34:24.548474+00:00", "meta": {"OBJECT_NAME": "FENGYUN 1C DEB", "OBJECT_ID": "1999-025BJA", "EPOCH": "2025-12-15T17:39:37.846944", "MEAN_MOTION": 14.315165, "ECCENTRICITY": 0.01480598, "INCLINATION": 98.4249, "RA_OF_ASC_NODE": 354.1225, "ARG_OF_PERICENTER": 259.5818, "MEAN_ANOMALY": 98.8651, "EPHEMERIS_TYPE": 0, "CLASSIFICATION_TYPE": "U", "NORAD_CAT_ID": 31172, "ELEMENT_SET_NO": 999, "REV_AT_EPOCH": 97669, "BSTAR": 0.00015412493, "MEAN_MOTION_DOT": 4.15e-06, "MEAN_MOTION_DDOT": 0}, "tle": {"line1": "1 31172U 99025BJA 25349.73585471  .00000415  00000+0  15412-3 0  9997", "line2": "2 31172  98.4249 354.1225 0148059 259.5818  98.8651 14.31516500976699"}}, "geometry": {"type": "Point", "coordinates": [178.5765378592266, 21.84451247236031]}}, {"type": "Feature", "properties": {"norad_id": 31175, "name": "FENGYUN 1C DEB", "group": "fengyun-1c-debris", "lat": 57.78468379206181, "lon": -175.3964838818152, "alt_km": 641.8660365271671, "timestamp": "2025-12-16T19:34:24.548486+00:00", "meta": {"OBJECT_NAME": "FENGYUN 1C DEB", "OBJECT_ID": "1999-025BJD", "EPOCH": "2025-12-12T17:59:18.181536", "MEAN_MOTION": 14.60068253, "ECCENTRICITY": 0.00743425, "INCLINATION": 98.3983, "RA_OF_ASC_NODE": 346.9248, "ARG_OF_PERICENTER": 165.4313, "MEAN_ANOMALY": 194.9054, "EPHEMERIS_TYPE": 0, "CLASSIFICATION_TYPE": "U", "NORAD_CAT_ID": 31175, "ELEMENT_SET_NO": 999, "REV_AT_EPOCH": 65639, "BSTAR": 0.0058463227, "MEAN_MOTION_DOT": 0.00029271, "MEAN_MOTION_DDOT": 0}, "tle": {"line1": "1 31175U 99025BJD 25346.74951599  .00029271  00000+0  58463-2 0  9999", "line2": "2 31175  98.3983 346.9248 0074342 165.4313 194.9054 14.60068253656394"}}, "geometry": {"type": "Point", "coordinates": [-175.3964838818152, 57.78468379206181]}}, {"type": "Feature", "properties": {"norad_id": 31177, "name": "FENGYUN 1C DEB", "group": "fengyun-1c-debris", "lat": 65.13938747602768, "lon": 103.27747016338405, "alt_km": 1246.8788547753256, "timestamp": "2025-12-16T19:34:24.548496+00:00", "meta": {"OBJECT_NAME": "FENGYUN 1C DEB", "OBJECT_ID": "1999-025BJF", "EPOCH": "2025-12-08T17:24:07.966080", "MEAN_MOTION": 13.622528, "ECCENTRICITY": 0.0310599, "INCLINATION": 98.7576, "RA_OF_ASC_NODE": 256.5653, "ARG_OF_PERICENTER": 324.298, "MEAN_ANOMALY": 91.0785, "EPHEMERIS_TYPE": 0, "CLASSIFICATION_TYPE": "U", "NORAD_CAT_ID": 31177, "ELEMENT_SET_NO": 999, "REV_AT_EPOCH": 66157, "BSTAR": 0.0076571, "MEAN_MOTION_DOT": 8.152e-05, "MEAN_MOTION_DDOT": 0}, "tle": {"line1": "1 31177U 99025BJF 25342.72509220  .00008152  00000+0  76571-2 0  9990", "line2": "2 31177  98.7576 256.5653 0310599 324.2980  91.0785 13.62252800661574"}}, "geometry": {"type": "Point", "coordinates": [103.27747016338405, 65.13938747602768]}}, {"type": "Feature", "properties": {"norad_id": 31178, "name": "FENGYUN 1C DEB", "group": "fengyun-1c-debris", "lat": -14.03659724335472, "lon": -4.225377016627882, "alt_km": 754.2139625423188, "timestamp": "2025-12-16T19:34:24.548507+00:00", "meta": {"OBJECT_NAME": "FENGYUN 1C DEB", "OBJECT_ID": "1999-025BJG", "EPOCH": "2025-12-15T06:29:40.237440", "MEAN_MOTION": 14.22236313, "ECCENTRICITY": 0.01259385, "INCLINATION": 99.5133, "RA_OF_ASC_NODE": 351.7059, "ARG_OF_PERICENTER": 308.4435, "MEAN_ANOMALY": 50.549, "EPHEMERIS_TYPE": 0, "CLASSIFICATION_TYPE": "U", "NORAD_CAT_ID": 31178, "ELEMENT_SET_NO": 999, "REV_AT_EPOCH": 95851, "BSTAR": 0.001505676, "MEAN_MOTION_DOT": 3.574e-05, "MEAN_MOTION_DDOT": 0}, "tle": {"line1": "1 31178U 99025BJG 25349.27060460  .00003574  00000+0  15057-2 0  9991", "line2": "2 31178  99.5133 351.7059 0125938 308.4435  50.5490 14.22236313958515"}}, "geometry": {"type": "Point", "coordinates": [-4.225377016627882, -14.03659724335472]}}, {"type": "Feature", "properties": {"norad_id": 31179, "name": "FENGYUN 1C DEB", "group": "fengyun-1c-debris", "lat": 65.83955294592147, "lon": -148.6298034942193, "alt_km": 998.1124074914551, "timestamp": "2025-12-16T19:34:24.548516+00:00", "meta": {"OBJECT_NAME": "FENGYUN 1C DEB", "OBJECT_ID": "1999-025BJH", "EPOCH": "2025-12-15T18:53:29.025600", "MEAN_MOTION": 13.91934403, "ECCENTRICITY": 0.02153501, "INCLINATION": 99.0197, "RA_OF_ASC_NODE": 9.6322, "ARG_OF_PERICENTER": 352.4784, "MEAN_ANOMALY": 7.3163, "EPHEMERIS_TYPE": 0, "CLASSIFICATION_TYPE": "U", "NORAD_CAT_ID": 31179, "ELEMENT_SET_NO": 999, "REV_AT_EPOCH": 61983, "BSTAR": 0.00086484181, "MEAN_MOTION_DOT": 1.289e-05, "MEAN_MOTION_DDOT": 0}, "tle": {"line1": "1 31179U 99025BJH 25349.78714150  .00001289  00000+0  86484-3 0  9994", "line2": "2 31179  99.0197   9.6322 0215350 352.4784   7.3163 13.91934403619833"}}, "geometry": {"type": "Point", "coordinates": [-148.6298034942193, 65.83955294592147]}}, {"type": "Feature", "properties": {"norad_id": 31180, "name": "FENGYUN 1C DEB", "group": "fengyun-1c-debris", "lat": -76.5438112430446, "lon": -100.53345890822675, "alt_km": 1316.3817864388284, "timestamp": "2025-12-16T19:34:24.548529+00:00", "meta": {"OBJECT_NAME": "FENGYUN 1C DEB", "OBJECT_ID": "1999-025BJJ", "EPOCH": "2025-12-15T02:50:03.152256", "MEAN_MOTION": 13.70344689, "ECCENTRICITY": 0.04982299, "INCLINATION": 99.2175, "RA_OF_ASC_NODE": 120.5693, "ARG_OF_PERICENTER": 53.7959, "MEAN_ANOMALY": 119.782, "EPHEMERIS_TYPE": 0, "CLASSIFICATION_TYPE": "U", "NORAD_CAT_ID": 31180, "ELEMENT_SET_NO": 999, "REV_AT_EPOCH": 64099, "BSTAR": 0.00020130055, "MEAN_MOTION_DOT": 3.86e-06, "MEAN_MOTION_DDOT": 0}, "tle": {"line1": "1 31180U 99025BJJ 25349.11809204  .00000386  00000+0  20130-3 0  9991", "line2": "2 31180  99.2175 120.5693 0498229  53.7959 119.7820 13.70344689640997"}}, "geometry": {"type": "Point", "coordinates": [-100.53345890822675, -76.5438112430446]}}, {"type": "Feature", "properties": {"norad_id": 31181, "name": "FENGYUN 1C DEB", "group": "fengyun-1c-debris", "lat": 38.95867680163385, "lon": 16.102408259852794, "alt_km": 818.0239355617969, "timestamp": "2025-12-16T19:34:24.548539+00:00", "meta": {"OBJECT_NAME": "FENGYUN 1C DEB", "OBJECT_ID": "1999-025BJK", "EPOCH": "2025-12-15T01:00:25.558272", "MEAN_MOTION": 14.11894251, "ECCENTRICITY": 0.0048014, "INCLINATION": 98.7775, "RA_OF_ASC_NODE": 21.5436, "ARG_OF_PERICENTER": 68.216, "MEAN_ANOMALY": 321.7259, "EPHEMERIS_TYPE": 0, "CLASSIFICATION_TYPE": "U", "NORAD_CAT_ID": 31181, "ELEMENT_SET_NO": 999, "REV_AT_EPOCH": 95800, "BSTAR": 0.0008914613, "MEAN_MOTION_DOT": 1.603e-05, "MEAN_MOTION_DDOT": 0}, "tle": {"line1": "1 31181U 99025BJK 25349.04196248  .00001603  00000+0  89146-3 0  9996", "line2": "2 31181  98.7775  21.5436 0048014  68.2160 321.7259 14.11894251958007"}}, "geometry": {"type": "Point", "coordinates": [16.102408259852794, 38.95867680163385]}}, {"type": "Feature", "properties": {"norad_id": 31182, "name": "FENGYUN 1C DEB", "group": "fengyun-1c-debris", "lat": -50.859094571973486, "lon": 148.75633491034844, "alt_km": 855.4792811720654, "timestamp": "2025-12-16T19:34:24.548550+00:00", "meta": {"OBJECT_NAME": "FENGYUN 1C DEB", "OBJECT_ID": "1999-025BJL", "EPOCH": "2025-12-09T05:08:12.053760", "MEAN_MOTION": 14.14545929, "ECCENTRICITY": 0.0023077, "INCLINATION": 98.6814, "RA_OF_ASC_NODE": 332.187, "ARG_OF_PERICENTER": 146.444, "MEAN_ANOMALY": 276.6011, "EPHEMERIS_TYPE": 0, "CLASSIFICATION_TYPE": "U", "NORAD_CAT_ID": 31182, "ELEMENT_SET_NO": 999, "REV_AT_EPOCH": 96031, "BSTAR": 0.00059768, "MEAN_MOTION_DOT": 1.107e-05, "MEAN_MOTION_DDOT": 0}, "tle": {"line1": "1 31182U 99025BJL 25343.21402840  .00001107  00000+0  59768-3 0  9994", "line2": "2 31182  98.6814 332.1870 0023077 146.4440 276.6011 14.14545929960315"}}, "geometry": {"type": "Point", "coordinates": [148.75633491034844, -50.859094571973486]}}]}